0 FENGYUN 1C DEB
1 31614U 99025BZU 13286.07176626  .00002673  00000-0  13406-2 0  6288
2 31614 099.0165 326.6844 0078264 336.2777 023.5094 14.15897015329853
0 FENGYUN 1C DEB
1 31614U 99025BZU 13288.05593354  .00004730  00000-0  23531-2 0  6296
2 31614 099.0159 328.6934 0078329 329.7094 058.2479 14.15914496330148
0 FENGYUN 1C DEB
1 31614U 99025BZU 13290.32340572  .00003961  00000-0  19737-2 0  6301
2 31614 099.0154 330.9873 0078545 323.0057 096.5547 14.15930649330461
0 FENGYUN 1C DEB
1 31614U 99025BZU 13292.37333428  .00003875  00000-0  19312-2 0  6314
2 31614 099.0152 333.0615 0078383 317.2913 105.7158 14.15943229330754
0 FENGYUN 1C DEB
1 31614U 99025BZU 13295.34024484  .00004564  00000-0  22695-2 0  6328
2 31614 099.0148 336.0632 0078318 308.7542 109.4742 14.15963812331179
